OBJECT_NAME,OBJECT_ID,EPOCH,MEAN_MOTION,ECCENTRICITY,INCLINATION,RA_OF_ASC_NODE,ARG_OF_PERICENTER,MEAN_ANOMALY,EPHEMERIS_TYPE,CLASSIFICATION_TYPE,NORAD_CAT_ID,ELEMENT_SET_NO,REV_AT_EPOCH,BSTAR,MEAN_MOTION_DOT,MEAN_MOTION_DDOT
PROBA-1,2001-049B,2026-07-23T07:26:21.371712,15.07641435,.00547785,97.9611,214.1075,2.3616,357.7859,0,U,26958,999,34906,.21490521E-3,.3316E-4,0
CUTE-1 (CO-55),2003-031E,2026-07-23T00:05:36.294720,14.24355144,.00108513,98.6747,212.1136,82.6312,277.6100,0,U,27844,999,19677,.1220184E-3,.238E-5,0
CUBESAT XI-IV (CO-57),2003-031J,2026-07-23T00:14:55.181760,14.23637690,.00107129,98.6778,211.8037,99.0689,261.1702,0,U,27848,999,19647,.10893948E-3,.205E-5,0
APRIZESAT 4,2009-041D,2026-07-23T04:44:41.916768,14.83922373,.00427543,98.1397,280.2340,203.1140,156.8151,0,U,35684,999,91670,.85909135E-4,.666E-5,0
APRIZESAT 3,2009-041F,2026-07-23T00:13:49.049472,14.96320600,.00606569,98.2106,358.9609,309.6515,49.9362,0,U,35686,999,92173,.43697982E-4,.442E-5,0
PROBA-2,2009-059B,2026-07-23T01:44:15.785088,14.54876107,.00135754,98.2464,26.9303,164.5615,195.5999,0,U,36037,999,88674,.48646926E-4,.164E-5,0
APRIZESAT 5,2011-044E,2026-07-23T06:51:18.225504,14.81137014,.005079,98.2447,138.3514,245.9378,113.6515,0,U,37792,999,80413,.92249713E-4,.673E-5,0
APRIZESAT 6,2011-044F,2026-07-22T07:40:21.097632,14.76964313,.00424939,98.2329,114.5327,335.3434,147.2526,0,U,37793,999,80233,.89357335E-4,.581E-5,0
PROBA-V,2013-021A,2026-07-22T21:27:19.909152,14.23604460,.00049398,98.3611,180.7425,41.6695,318.4860,0,U,39159,999,68619,.40809693E-4,.52E-6,0
APRIZESAT 7,2013-066A,2026-07-23T07:29:24.736704,14.91633577,.00373884,97.7725,157.0178,91.4811,269.0691,0,U,39416,999,68661,.10065051E-3,.967E-5,0
APRIZESAT 8,2013-066K,2026-07-23T06:14:40.445376,14.87705940,.00461752,97.8232,151.2291,165.3498,194.9069,0,U,39425,999,68503,.83086653E-4,.715E-5,0
BUGSAT-1 (TITA),2014-033E,2026-07-23T06:40:20.095104,15.15945185,.00287039,98.0424,298.9466,59.5702,300.8360,0,U,40014,999,66130,.4070867E-3,.7814E-4,0
SAUDISAT 4,2014-033G,2026-07-23T03:57:20.361600,14.79581727,.00436901,97.7628,349.0652,317.6757,42.1087,0,U,40016,999,65139,.67431753E-4,.46E-5,0
APRIZESAT 9,2014-033J,2026-07-23T07:35:08.454048,14.74260317,.00674735,97.9103,336.6404,84.3676,276.5222,0,U,40018,999,64888,.86232569E-4,.539E-5,0
APRIZESAT 10,2014-033K,2026-07-22T07:07:08.697216,14.70917447,.0079274,97.9688,329.4807,160.7576,199.6654,0,U,40019,999,64741,.89312561E-4,.521E-5,0
TECHDEMOSAT-1 (TDS-1),2014-037H,2026-07-22T11:05:08.276640,15.13751238,.00074386,98.3838,199.1875,137.8138,222.3665,0,U,40076,999,65356,.43437919E-3,.7761E-4,0
TECHNOSAT,2017-042E,2026-07-23T00:25:44.589216,15.05139941,.00167299,97.4322,0.3247,337.0298,23.0179,0,U,42829,999,49209,.14283866E-3,.198E-4,0
FLYING LAPTOP,2017-042G,2026-07-23T07:28:14.711232,15.01350719,.00191794,97.4850,358.4943,6.7641,353.3839,0,U,42831,999,49187,.25790654E-3,.3277E-4,0
HAWK-A,2018-099H,2026-07-23T02:41:49.414272,15.25042895,.00354326,97.3896,255.8841,156.4668,203.8200,0,U,43765,999,41857,.30032986E-3,.7566E-4,0
HAWK-B,2018-099AN,2026-07-23T02:40:31.321632,15.23183557,.00321716,97.3944,255.2226,174.1924,185.9692,0,U,43794,999,41850,.27966177E-3,.6635E-4,0
HAWK-C,2018-099AT,2026-07-23T03:18:11.943072,15.28587276,.00410386,97.3870,257.0009,156.0749,204.2410,0,U,43799,999,41940,.31061262E-3,.8782E-4,0
SALSAT,2020-068K,2026-07-23T05:54:11.724192,15.30255611,.00100696,97.8868,209.5206,165.1541,194.9995,0,U,46495,999,32087,.25761612E-3,.7467E-4,0
HAWK-2C,2021-006CT,2026-07-23T01:47:05.717472,15.35060777,.00085842,97.2263,247.6735,78.5306,281.6901,0,U,47502,999,30500,.19685627E-3,.6625E-4,0
HAWK-2A,2021-006CW,2026-07-23T01:50:07.488384,15.35092659,.00081476,97.2307,248.3751,82.1128,278.1040,0,U,47505,999,30500,.23708372E-3,.8004E-4,0
HAWK-2B,2021-006CZ,2026-07-23T01:39:51.203232,15.35218400,.00086888,97.2178,246.6431,80.4800,279.7426,0,U,47508,999,30500,.2321185E-3,.7867E-4,0
HAWK-3B,2021-059BE,2026-07-23T02:53:07.547136,15.72436622,.00050874,97.6638,44.3065,171.9825,188.1520,0,U,48931,999,28349,.36649546E-3,.48781E-3,0
HAWK-3C,2021-059BX,2026-07-23T02:52:40.566144,15.72431800,.00054243,97.6753,50.0517,171.4962,188.6393,0,U,48948,999,28349,.38986946E-3,.51915E-3,0
HAWK-3A,2021-059CG,2026-07-23T02:52:29.638272,15.72445401,.00056361,97.6701,47.2287,177.0852,183.0445,0,U,48957,999,28349,.38891156E-3,.5182E-3,0
HAWK-5C,2022-057Y,2026-07-22T21:25:06.226752,15.52531107,.00023546,97.6627,5.9014,306.9975,53.1061,0,U,52754,999,23188,.3393022E-3,.20726E-3,0
HAWK-5B,2022-057AA,2026-07-22T21:24:51.848064,15.52530461,.00030303,97.6637,4.2560,293.6813,66.4121,0,U,52756,999,23188,.35679289E-3,.21804E-3,0
